STARLINK-30494          
1 57970U 23151G   26068.36049035 -.00001272  00000+0 -35691-4 0  9993
2 57970  43.0027 192.4566 0001155 241.5536 118.5200 15.28417441137406
STARLINK-32949          
1 63145U 25043P   26068.26149331  .00049878  00000+0  18119-2 0  9991
2 63145  43.0039  18.9239 0001900 272.7351  87.3283 15.27541889 57866
